[{"OBJECT_NAME":"KSM1-B","OBJECT_ID":"2020-081K","EPOCH":"2026-03-09T23:03:07.817760","MEAN_MOTION":15.22983333,"ECCENTRICITY":0.00044009,"INCLINATION":36.9029,"RA_OF_ASC_NODE":318.3288,"ARG_OF_PERICENTER":174.9385,"MEAN_ANOMALY":185.1408,"EPHEMERIS_TYPE":0,"CLASSIFICATION_TYPE":"U","NORAD_CAT_ID":46914,"ELEMENT_SET_NO":999,"REV_AT_EPOCH":29704,"BSTAR":0.00033094478,"MEAN_MOTION_DOT":7.872e-5,"MEAN_MOTION_DDOT":0},{"OBJECT_NAME":"STARLINK-2699","OBJECT_ID":"2021-040F","EPOCH":"2026-03-10T00:00:02.999808","MEAN_MOTION":15.14225106,"ECCENTRICITY":0.00010945,"INCLINATION":53.0872,"RA_OF_ASC_NODE":150.3956,"ARG_OF_PERICENTER":60.8354,"MEAN_ANOMALY":13.9709,"EPHEMERIS_TYPE":0,"CLASSIFICATION_TYPE":"U","NORAD_CAT_ID":48433,"ELEMENT_SET_NO":999,"REV_AT_EPOCH":580,"BSTAR":0.075361952,"MEAN_MOTION_DOT":0.01532228,"MEAN_MOTION_DDOT":0}]
